COSMOS 2433 [GLONASS-M] 
1 32275U 07052A   26136.00612854 -.00000028  00000+0  00000+0 0  9996
2 32275  65.5957 317.0165 0001561 187.3531 172.6516  2.13104036144379
COSMOS 2432 [GLONASS-M] 
1 32276U 07052B   26132.45000145 -.00000011  00000+0  00000+0 0  9998
2 32276  65.6134 317.2637 0008594 337.2231 118.6433  2.13103386144320
COSMOS 2434 [GLONASS-M] 
1 32393U 07065A   26136.21166203  .00000085  00000+0  00000+0 0  9998
2 32393  64.3158 192.9941 0001123  25.4229  22.2545  2.13101516143092
COSMOS 2436 [GLONASS-M] 
1 32395U 07065C   26133.26899799  .00000072  00000+0  00000+0 0  9991
2 32395  64.3244 193.1651 0017150 356.7973  85.8341  2.13100439142983
COSMOS 2456 [GLONASS-M] 
1 36111U 09070A   26136.14426103 -.00000017  00000+0  00000+0 0  9994
2 36111  64.9939  72.0645 0005709 321.2388 192.6933  2.13103747127748
COSMOS 2457 [GLONASS-M] 
1 36112U 09070B   26132.20336640  .00000001  00000+0  00000+0 0  9996
2 36112  64.9768  72.0433 0001452 149.1813 349.1541  2.13101274127663
COSMOS 2460 [GLONASS-M] 
1 36402U 10007C   26136.70942285 -.00000031  00000+0  00000+0 0  9991
2 36402  65.4389 315.5319 0002205  80.0171 277.1198  2.13106192126059
COSMOS 2476 [GLONASS-M] 
1 37867U 11064A   26137.14868012 -.00000014  00000+0  00000+0 0  9996
2 37867  65.2536  73.9187 0023577 241.2190 231.6090  2.13103813113107
COSMOS 2477 [GLONASS-M] 
1 37868U 11064B   26135.60158355 -.00000013  00000+0  00000+0 0  9997
2 37868  65.2589  74.0503 0020707 242.8968 303.4831  2.13103039113068
COSMOS 2475 [GLONASS-M] 
1 37869U 11064C   26133.53746779 -.00000003  00000+0  00000+0 0  9990
2 37869  65.2651  74.1407 0026804 255.0346 103.0905  2.13101916113027
COSMOS 2485 [GLONASS-M] 
1 39155U 13019A   26136.93884259 -.00000013  00000+0  00000+0 0  9996
2 39155  65.4034  74.6527 0023931 236.5180 123.2327  2.13103279101618
COSMOS 2492 [GLONASS-M] 
1 39620U 14012A   26135.02076124 -.00000023  00000+0  00000+0 0  9991
2 39620  65.3173 315.0630 0010910 329.1510  30.7929  2.13103192 94530
COSMOS 2500 [GLONASS-M] 
1 40001U 14032A   26133.78320435 -.00000016  00000+0  00000+0 0  9998
2 40001  65.2537 314.8550 0006428 181.4566 178.5543  2.13106574 92724
COSMOS 2501 [GLONASS-K] 
1 40315U 14075A   26132.63703521  .00000068  00000+0  00000+0 0  9993
2 40315  63.6143 191.6025 0022142 210.7482 149.1999  2.13101550 89093
COSMOS 2514 [GLONASS-M] 
1 41330U 16008A   26136.84475721 -.00000032  00000+0  00000+0 0  9996
2 41330  65.0411 314.0820 0010137 196.8917 163.0731  2.13102546 79956
COSMOS 2522 [GLONASS-M] 
1 42939U 17055A   26137.15191590  .00000079  00000+0  00000+0 0  9999
2 42939  64.0767 192.9407 0010166 238.3207 121.6702  2.13101783 67312
COSMOS 2527 [GLONASS-M] 
1 43508U 18053A   26130.54369296  .00000017  00000+0  00000+0 0  9999
2 43508  65.5577  75.1624 0008142 246.5326 113.3712  2.13102285 61475
COSMOS 2529 [GLONASS-M] 
1 43687U 18086A   26136.74086469  .00000081  00000+0  00000+0 0  9990
2 43687  64.2929 193.6559 0011192 256.1088 103.8568  2.13102128 58615
COSMOS 2534 [GLONASS-M] 
1 44299U 19030A   26137.13200311  .00000079  00000+0  00000+0 0  9995
2 44299  64.3664 193.6622 0012672 275.7727 158.8051  2.13102301 54261
COSMOS 2544 [GLONASS-M] 
1 44850U 19088A   26136.11952625 -.00000013  00000+0  00000+0 0  9999
2 44850  65.5487  74.8006 0014511 261.2629  98.5507  2.13101696 50034
COSMOS 2545 [GLONASS-M] 
1 45358U 20018A   26135.84549925 -.00000029  00000+0  00000+0 0  9999
2 45358  64.3753 313.5554 0007490 233.4064 126.5264  2.13102449 47972
COSMOS 2547 [GLONASS-K] 
1 46805U 20075A   26136.03478387  .00000085  00000+0  00000+0 0  9996
2 46805  64.5980 193.5508 0008894 241.7969 118.2028  2.13102438 43222
COSMOS 2557 [GLONASS-K] 
1 52984U 22075A   26133.38373156 -.00000017  00000+0  00000+0 0  9992
2 52984  64.3189 315.7114 0010072 279.0223  80.8784  2.13102035 29977
COSMOS 2559 [GLONASS-K] 
1 54031U 22130A   26135.08031582 -.00000026  00000+0  00000+0 0  9992
2 54031  64.2912 315.7357 0011733 176.0930 183.9248  2.13101469 27989
COSMOS 2564 [GLONASS-M] 
1 54377U 22161A   26136.33149800  .00000084  00000+0  00000+0 0  9994
2 54377  64.7393 193.7689 0011613 222.3760 137.6240  2.13101960 26955
COSMOS 2569 [GLONASS-K2]
1 57517U 23114A   26134.93607692 -.00000011  00000+0  00000+0 0  9995
2 57517  65.2844  73.7412 0011874 296.2793  63.5779  2.13103680 21553
COSMOS 2584 [GLONASS-K2]
1 63130U 25042A   26136.23073531 -.00000015  00000+0  00000+0 0  9993
2 63130  65.0673  73.8879 0006240 234.0729 125.8480  2.13103681  9364
COSMOS 2596 [GLONASS-K1]
1 65590U 25206B   26132.08725519 -.00000012  00000+0  00000+0 0  9993
2 65590  64.6568 316.2427 0011354 315.8273 222.0958  2.13100605  5146
